GLOBALSTAR M094         
1 39074U 13005C   24290.21070485 -.00000076  00000+0  15588-3 0  9999
2 39074  51.9948 204.9528 0001009  72.4671 287.6306 12.62269568541580
GLOBALSTAR M096         
1 39075U 13005D   24290.22389706 -.00000095  00000+0  49714-4 0  9990
2 39075  52.0062 253.2366 0000883  66.7311 293.3649 12.62271614540839
GLOBALSTAR M078         
1 39076U 13005E   24290.19717895  .00000039  00000+0  79651-3 0  9990
2 39076  51.9892 338.1587 0001005  26.1837 333.9081 12.62275912539314
GLOBALSTAR M095         
1 39077U 13005F   24290.54069955 -.00000060  00000+0  24270-3 0  9999
2 39077  51.9816 334.4334 0000892  58.1402 301.9551 12.62266306539365
GLOBALSTAR M087         
1 52888U 22064A   24289.86023224 -.00000039  00000+0  17042-3 0  9996
2 52888  51.9741 147.5953 0008828 315.2548  44.7640 13.37590131113674
